[{"OBJECT_NAME":"STARLINK-5140","OBJECT_ID":"2023-046BH","EPOCH":"2026-03-09T02:26:40.218432","MEAN_MOTION":15.0253426,"ECCENTRICITY":0.00011711,"INCLINATION":43.0008,"RA_OF_ASC_NODE":110.9228,"ARG_OF_PERICENTER":272.7156,"MEAN_ANOMALY":87.3553,"EPHEMERIS_TYPE":0,"CLASSIFICATION_TYPE":"U","NORAD_CAT_ID":56147,"ELEMENT_SET_NO":999,"REV_AT_EPOCH":16256,"BSTAR":3.9003224e-5,"MEAN_MOTION_DOT":3.23e-6,"MEAN_MOTION_DDOT":0},{"OBJECT_NAME":"NOAA 16 DEB","OBJECT_ID":"2000-055LF","EPOCH":"2026-03-09T22:09:26.280576","MEAN_MOTION":15.03400913,"ECCENTRICITY":0.0013479,"INCLINATION":98.8787,"RA_OF_ASC_NODE":242.3075,"ARG_OF_PERICENTER":293.6263,"MEAN_ANOMALY":66.3543,"EPHEMERIS_TYPE":0,"CLASSIFICATION_TYPE":"U","NORAD_CAT_ID":41426,"ELEMENT_SET_NO":999,"REV_AT_EPOCH":52286,"BSTAR":0.010804821,"MEAN_MOTION_DOT":0.00150198,"MEAN_MOTION_DDOT":0}]
